0 COSMOS 1275 DEB *
1 18565U 81053LY  13282.18344539 -.00000360  00000-0 -77742-3 0  5789
2 18565 082.4344 001.2939 0125838 344.5970 044.0011 13.28735340286478
0 COSMOS 1275 DEB *
1 18565U 81053LY  13286.65284534  .00000211  00000-0  41630-3 0  5806
2 18565 082.4376 358.0167 0128874 331.9572 184.4920 13.28736944287065
0 COSMOS 1275 DEB *
1 18565U 81053LY  13287.15330285 -.00000028  00000-0 -83452-4 0  5815
2 18565 082.4388 357.6511 0129239 330.5845 058.5002 13.28731517287131
0 COSMOS 1275 DEB *
1 18565U 81053LY  13289.66456190  .00000065  00000-0  11114-3 0  5822
2 18565 082.4399 355.8088 0131384 323.7009 191.4566 13.28732696287469
0 COSMOS 1275 DEB *
1 18565U 81053LY  13291.14487038 -.00000396  00000-0 -84845-3 0  5834
2 18565 082.4411 354.7231 0132214 319.7987 072.5527 13.28725167287668
0 COSMOS 1275 DEB *
1 18565U 81053LY  13293.65571797 -.00000159  00000-0 -35482-3 0  5849
2 18565 082.4425 352.8825 0134384 313.2037 203.2145 13.28731501287990
0 COSMOS 1275 DEB *
1 18565U 81053LY  13294.15607984 -.00000493  00000-0 -10471-2 0  5855
2 18565 082.4428 352.5147 0135235 311.7718 076.7910 13.28717401288067
0 COSMOS 1275 DEB *
1 18565U 81053LY  13295.13471019 -.00000140  00000-0 -31453-3 0  5866
2 18565 082.4439 351.7975 0136466 309.2133 078.0476 13.28725061288196
